{"type":"FeatureCollection","features":[{"type":"Feature","properties":{},"geometry":{"type":"Polygon","coordinates":[[[-63.24039459228516,17.652282936164973],[-63.24322700500488,17.65105609255723],[-63.24837684631348,17.647048345187766],[-63.2515525817871,17.647866260057867],[-63.25455665588379,17.644839956485406],[-63.25395584106445,17.64181360206819],[-63.255844116210945,17.63968694422622],[-63.256444931030266,17.6342065948824],[-63.259449005126946,17.63077106703822],[-63.259706497192376,17.6252904466256],[-63.25979232788087,17.618991617463017],[-63.254470825195305,17.615719411616208],[-63.24494361877441,17.612283531613908],[-63.233785629272454,17.613674252828396],[-63.2252025604248,17.61661927413982],[-63.22039604187012,17.61915522619754],[-63.22013854980469,17.62259097534676],[-63.2156753540039,17.629298677919767],[-63.214044570922844,17.63158905579696],[-63.21327209472656,17.635760740729747],[-63.215417861938484,17.639196173467273],[-63.21988105773926,17.63886899221874],[-63.21756362915039,17.641731807999964],[-63.21670532226562,17.64573967366968],[-63.219280242919915,17.648765962124646],[-63.22288513183593,17.647784468738],[-63.22880744934081,17.647702677381005],[-63.2285499572754,17.651628620614442],[-63.23198318481445,17.64933849746324],[-63.23610305786132,17.648847752998744],[-63.24039459228516,17.652282936164973]]]}},{"type":"Feature","properties":{},"geometry":{"type":"Polygon","coordinates":[[[-62.99955368041992,17.528165911855677],[-63.00298690795899,17.522927725208806],[-63.00281524658203,17.51425164597677],[-63.00607681274414,17.505411440715573],[-63.00178527832031,17.48920328050187],[-62.991485595703125,17.48118052518023],[-62.984790802001946,17.46709891561057],[-62.96796798706055,17.461531467197943],[-62.95372009277344,17.464806457465468],[-62.945823669433594,17.472993675446073],[-62.94410705566407,17.48592872923618],[-62.95028686523437,17.494278718426415],[-62.962646484375,17.50213718143134],[-62.97740936279297,17.507703387101298],[-62.97723770141601,17.51212348774267],[-62.98067092895508,17.52014487704737],[-62.98616409301757,17.519326384173244],[-62.98942565917968,17.528165911855677],[-62.99955368041992,17.528165911855677]]]}},{"type":"Feature","properties":{},"geometry":{"type":"Polygon","coordinates":[[[-68.39332580566405,12.322560930368583],[-68.41941833496094,12.299080959462867],[-68.42765808105469,12.265534505434463],[-68.42010498046875,12.23064166307515],[-68.40980529785156,12.21722011174799],[-68.36654663085938,12.21319351356561],[-68.31916809082031,12.19842879633523],[-68.29994201660155,12.17560897939434],[-68.31436157226562,12.177622571591888],[-68.33221435546875,12.165540789425215],[-68.3349609375,12.143389429318432],[-68.32191467285156,12.144731988484425],[-68.29513549804688,12.139361711208235],[-68.30680847167969,12.116536825407707],[-68.29238891601562,12.091024348838673],[-68.28964233398438,12.063494999963579],[-68.28208923339844,12.042678249177458],[-68.25187683105469,12.017158740733958],[-68.23539733886719,12.019845118815587],[-68.21891784667969,12.052751072179356],[-68.22578430175781,12.084981563528286],[-68.21548461914062,12.097738394620004],[-68.18733215332031,12.112508701632402],[-68.19007873535156,12.144731988484425],[-68.20037841796875,12.184334435280148],[-68.18458557128906,12.218562297527434],[-68.19419860839844,12.232654837013484],[-68.27590942382812,12.241378413502902],[-68.33839416503905,12.284321046538677],[-68.35968017578125,12.3118274899455],[-68.39332580566405,12.322560930368583]]]}}]}